NORAD_CAT_ID,OBJECT_NAME,OBJECT_TYPE,EPOCH,MEAN_MOTION,ECCENTRICITY,INCLINATION,RA_OF_ASC_NODE,ARG_OF_PERICENTER,MEAN_ANOMALY,BSTAR,MEAN_MOTION_DOT,MEAN_MOTION_DDOT,TLE_LINE0,TLE_LINE1,TLE_LINE2,SEMIMAJOR_AXIS,PERIOD,APOGEE,PERIGEE,DECAYED
51983.0,STARLINK-3655,PAYLOAD,2024-05-02 05:07:09,15.10545404,0.0003912,53.2161,195.7232,12.9768,347.1325,0.0014445,0.00023884,0.0,0 STARLINK-3655,1 51983U 22025AD  24123.21330218  .00023884  00000-0  14445-2 0  9994,2 51983  53.2161 195.7232 0003912  12.9768 347.1325 15.10545404120055,6912.673,95.33,537.242,531.833,0.0
51983.0,STARLINK-3655,PAYLOAD,2024-05-02 14:38:49,15.10560233,0.0003995,53.2162,193.9359,12.8389,347.2705,0.0013556,0.00022401,0.0,0 STARLINK-3655,1 51983U 22025AD  24123.61029150  .00022401  00000-0  13556-2 0  9994,2 51983  53.2162 193.9359 0003995  12.8389 347.2705 15.10560233118995,6912.627,95.329,537.254,531.731,0.0
51983.0,STARLINK-3655,PAYLOAD,2024-05-03 11:17:24,15.10594609,0.0004062,53.2166,190.064,14.5943,345.5167,0.0010997,0.00018123,0.0,0 STARLINK-3655,1 51983U 22025AD  24124.47041860  .00018123  00000-0  10997-2 0  9993,2 51983  53.2166 190.0640 0004062  14.5943 345.5167 15.10594609120249,6912.522,95.327,537.195,531.58,0.0
51983.0,STARLINK-3655,PAYLOAD,2024-05-03 14:27:57,15.1059256,0.0004092,53.2165,189.4688,13.6468,346.4635,0.0007255,0.00011845,0.0,0 STARLINK-3655,1 51983U 22025AD  24124.60274508  .00011845  00000-0  72550-3 0  9993,2 51983  53.2165 189.4688 0004092  13.6468 346.4635 15.10592560119148,6912.529,95.327,537.222,531.565,0.0
51983.0,STARLINK-3655,PAYLOAD,2024-05-03 20:49:03,15.10598591,0.0004064,53.2164,188.277,14.3986,345.7122,0.00072285,0.00011802,0.0,0 STARLINK-3655,1 51983U 22025AD  24124.86739658  .00011802  00000-0  72285-3 0  9991,2 51983  53.2164 188.2770 0004064  14.3986 345.7122 15.10598591119185,6912.51,95.326,537.185,531.566,0.0
51983.0,STARLINK-3655,PAYLOAD,2024-05-04 04:45:25,15.10606067,0.0004101,53.2163,186.7877,14.9713,345.1401,0.00061502,9.997e-05,0.0,0 STARLINK-3655,1 51983U 22025AD  24125.19820888  .00009997  00000-0  61502-3 0  9996,2 51983  53.2163 186.7877 0004101  14.9713 345.1401 15.10606067120354,6912.487,95.326,537.187,531.518,0.0
51983.0,STARLINK-3655,PAYLOAD,2024-05-05 10:55:35,15.10646808,0.0004142,53.2165,181.1299,18.9929,341.1217,0.00091917,0.00015115,0.0,0 STARLINK-3655,1 51983U 22025AD  24126.45527745  .00015115  00000-0  91917-3 0  9994,2 51983  53.2165 181.1299 0004142  18.9929 341.1217 15.10646808120540,6912.363,95.323,537.091,531.365,0.0
51983.0,STARLINK-3655,PAYLOAD,2024-05-05 20:27:13,15.10658558,0.0004161,53.2162,179.343,20.1842,339.9315,0.00098075,0.00016155,0.0,0 STARLINK-3655,1 51983U 22025AD  24126.85224059  .00016155  00000-0  98075-3 0  9997,2 51983  53.2162 179.3430 0004161  20.1842 339.9315 15.10658558119483,6912.327,95.323,537.069,531.316,0.0
51983.0,STARLINK-3655,PAYLOAD,2024-05-06 10:44:39,15.10680333,0.0004199,53.2156,176.6622,21.311,338.8057,0.0011529,0.00019062,0.0,0 STARLINK-3655,1 51983U 22025AD  24127.44767833  .00019062  00000-0  11529-2 0  9993,2 51983  53.2156 176.6622 0004199  21.3110 338.8057 15.10680333119578,6912.261,95.321,537.028,531.223,0.0
51983.0,STARLINK-3655,PAYLOAD,2024-05-07 12:08:56,15.10713611,0.0004263,53.2148,171.8967,23.651,336.4678,0.00094686,0.0001561,0.0,0 STARLINK-3655,1 51983U 22025AD  24128.50621386  .00015610  00000-0  94686-3 0  9994,2 51983  53.2148 171.8967 0004263  23.6510 336.4678 15.10713611120851,6912.159,95.319,536.971,531.078,0.0
51983.0,STARLINK-3655,PAYLOAD,2024-05-08 11:57:56,15.10745637,0.0004398,53.2142,167.4274,25.8749,334.2463,0.0010159,0.00016788,0.0,0 STARLINK-3655,1 51983U 22025AD  24129.49856986  .00016788  00000-0  10159-2 0  9998,2 51983  53.2142 167.4274 0004398  25.8749 334.2463 15.10745637119886,6912.062,95.317,536.967,530.887,0.0
51983.0,STARLINK-3655,PAYLOAD,2024-05-08 19:54:15,15.1075644,0.0004402,53.2142,165.9381,27.04,333.0822,0.0010503,0.00017373,0.0,0 STARLINK-3655,1 51983U 22025AD  24129.82935057  .00017373  00000-0  10503-2 0  9996,2 51983  53.2142 165.9381 0004402  27.0400 333.0822 15.10756440121054,6912.029,95.316,536.936,530.851,0.0
51983.0,STARLINK-3655,PAYLOAD,2024-05-09 08:36:21,15.10807579,0.0006038,53.2135,163.5619,24.776,335.3521,0.0021054,0.00035266,0.0,0 STARLINK-3655,1 51983U 22025AD  24130.35858622  .00035266  00000-0  21054-2 0  9992,2 51983  53.2135 163.5619 0006038  24.7760 335.3521 15.10807579121134,6911.873,95.313,537.911,529.564,0.0
51983.0,STARLINK-3655,PAYLOAD,2024-05-10 11:35:45,15.10868544,0.0004859,53.2153,158.492,32.3723,327.7568,0.0013138,0.00021888,0.0,0 STARLINK-3655,1 51983U 22025AD  24131.48316542  .00021888  00000-0  13138-2 0  9996,2 51983  53.2153 158.4920 0004859  32.3723 327.7568 15.10868544121309,6911.687,95.309,536.91,530.193,0.0
51983.0,STARLINK-3655,PAYLOAD,2024-05-11 08:14:05,15.10941271,0.0004941,53.2162,154.6194,35.1825,324.9494,0.0035653,0.00060351,0.0,0 STARLINK-3655,1 51983U 22025AD  24132.34311386  .00060351  00000-0  35653-2 0  9997,2 51983  53.2162 154.6194 0004941  35.1825 324.9494 15.10941271121436,6911.465,95.305,536.745,529.915,0.0
51983.0,STARLINK-3655,PAYLOAD,2024-05-12 04:52:19,15.11005953,0.000497,53.2164,150.7458,37.2675,322.8662,0.001424,0.00023847,0.0,0 STARLINK-3655,1 51983U 22025AD  24133.20300826  .00023847  00000-0  14240-2 0  9998,2 51983  53.2164 150.7458 0004970  37.2675 322.8662 15.11005953121563,6911.268,95.301,536.568,529.698,0.0
51983.0,STARLINK-3655,PAYLOAD,2024-05-12 08:02:49,15.11008304,0.0004977,53.2163,150.15,37.5089,322.6251,0.0011433,0.00019076,0.0,0 STARLINK-3655,1 51983U 22025AD  24133.33529836  .00019076  00000-0  11433-2 0  9996,2 51983  53.2163 150.1500 0004977  37.5089 322.6251 15.11008304120466,6911.261,95.301,536.565,529.686,0.0
51983.0,STARLINK-3655,PAYLOAD,2024-05-13 04:41:03,15.11021186,0.0005002,53.2164,146.2768,39.5937,320.5421,0.00063876,0.00010518,0.0,0 STARLINK-3655,1 51983U 22025AD  24134.19517886  .00010518  00000-0  63876-3 0  9994,2 51983  53.2164 146.2768 0005002  39.5937 320.5421 15.11021186121711,6911.221,95.3,536.543,529.629,0.0
51983.0,STARLINK-3655,PAYLOAD,2024-05-13 06:16:18,15.1102169,0.0005014,53.2163,145.979,39.2781,320.8575,0.00076374,0.00012638,0.0,0 STARLINK-3655,1 51983U 22025AD  24134.26132389  .00012638  00000-0  76374-3 0  9995,2 51983  53.2163 145.9790 0005014  39.2781 320.8575 15.11021690120608,6911.22,95.3,536.55,529.62,0.0
51983.0,STARLINK-3655,PAYLOAD,2024-05-13 17:23:02,15.1102896,0.0005027,53.2162,143.8932,40.3835,319.753,0.000589,9.677e-05,0.0,0 STARLINK-3655,1 51983U 22025AD  24134.72433239  .00009677  00000-0  58900-3 0  9998,2 51983  53.2162 143.8932 0005027  40.3835 319.7530 15.11028960120671,6911.198,95.299,536.537,529.588,0.0
51983.0,STARLINK-3655,PAYLOAD,2024-05-14 07:40:15,15.11036418,0.0005054,53.2159,141.2113,42.0108,318.1272,0.00045612,7.426e-05,0.0,0 STARLINK-3655,1 51983U 22025AD  24135.31962642  .00007426  00000-0  45612-3 0  9995,2 51983  53.2159 141.2113 0005054  42.0108 318.1272 15.11036418121889,6911.175,95.299,536.533,529.547,0.0
51983.0,STARLINK-3655,PAYLOAD,2024-05-14 17:11:44,15.11044626,0.000508,53.216,139.4238,42.9122,317.2267,0.00050821,8.311e-05,0.0,0 STARLINK-3655,1 51983U 22025AD  24135.71648676  .00008311  00000-0  50821-3 0  9999,2 51983  53.2160 139.4238 0005080  42.9122 317.2267 15.11044626120829,6911.15,95.298,536.526,529.504,0.0
51983.0,STARLINK-3655,PAYLOAD,2024-05-15 09:04:11,15.11062776,0.0005111,53.2157,136.4443,44.4689,315.6714,0.00073469,0.0001216,0.0,0 STARLINK-3655,1 51983U 22025AD  24136.37791555  .00012160  00000-0  73469-3 0  9997,2 51983  53.2157 136.4443 0005111  44.4689 315.6714 15.11062776122041,6911.095,95.297,536.492,529.427,0.0
51983.0,STARLINK-3655,PAYLOAD,2024-05-16 04:07:24,15.10540881,0.0004349,53.215,132.8696,13.6164,346.4946,-0.011777,-0.00191599,0.0,0 STARLINK-3655,1 51983U 22025AD  24137.17180962 -.00191599  00000-0 -11777-1 0  9998,2 51983  53.2150 132.8696 0004349  13.6164 346.4946 15.10540881122161,6912.686,95.33,537.558,531.545,0.0
51983.0,STARLINK-3655,PAYLOAD,2024-05-16 14:00:01,15.09686681,0.0001376,53.2148,131.0205,78.8618,359.457,-0.042198,-0.00644701,0.0,0 STARLINK-3655,1 51983U 22025AD  24137.58334491 -.00644701  00000-0 -42198-1 0  9990,2 51983  53.2148 131.0205 0001376  78.8618 359.4570 15.09686681122220,6915.294,95.384,538.11,536.207,0.0
51983.0,STARLINK-3655,PAYLOAD,2024-05-16 22:00:00,15.09232254,0.0001425,53.2148,129.5212,90.0879,0.5701,-0.039934,-0.00604945,0.0,0 STARLINK-3655,1 51983U 22025AD  24137.91667824 -.00604945  00000-0 -39934-1 0  9996,2 51983  53.2148 129.5212 0001425  90.0879   0.5701 15.09232254  5807,6916.682,95.413,539.532,537.561,0.0
51983.0,STARLINK-3655,PAYLOAD,2024-05-17 06:00:00,15.0880058,0.0001511,53.2148,128.0261,82.4054,20.0644,-0.041751,-0.00623811,0.0,0 STARLINK-3655,1 51983U 22025AD  24138.25001157 -.00623811  00000-0 -41751-1 0  9998,2 51983  53.2148 128.0261 0001511  82.4054  20.0644 15.08800580122334,6918.001,95.44,540.911,538.821,0.0
51983.0,STARLINK-3655,PAYLOAD,2024-05-17 14:00:01,15.08300214,0.0001517,53.2148,126.5298,83.1903,30.5735,-0.026619,-0.00395358,0.0,0 STARLINK-3655,1 51983U 22025AD  24138.58334491 -.00395358  00000-0 -26619-1 0  9992,2 51983  53.2148 126.5298 0001517  83.1903  30.5735 15.08300214  5857,6919.531,95.472,542.445,540.346,0.0
51983.0,STARLINK-3655,PAYLOAD,2024-05-17 22:00:00,15.07999337,0.0001659,53.2151,125.0336,91.4829,33.0539,0.0023139,0.00035888,0.0,0 STARLINK-3655,1 51983U 22025AD  24138.91667824  .00035888  00000-0  23139-2 0  9990,2 51983  53.2151 125.0336 0001659  91.4829  33.0539 15.07999337  5808,6920.451,95.491,543.464,541.168,0.0
51983.0,STARLINK-3655,PAYLOAD,2024-05-18 14:00:01,15.08031523,0.0001619,53.2154,122.0457,89.491,56.3262,-0.00051366,-8.273e-05,0.0,0 STARLINK-3655,1 51983U 22025AD  24139.58335648 -.00008273  00000-0 -51366-3 0  9994,2 51983  53.2154 122.0457 0001619  89.4910  56.3262 15.08031523122532,6920.353,95.489,543.338,541.097,0.0
